[
    {
        "Altitude(m)": 570588.0042926889,
        "Argument of Periapsis(deg)": 0.013245982221427002,
        "Eccentricity": 0.0,
        "Inclination(deg)": 53.0,
        "Latitude(deg)": -49.93586822587958,
        "Longitude(deg)": -18.562675188669484,
        "Mean Anomaly(deg)": -107.08951426484481,
        "RAAN(deg)": 199.98028673705602,
        "Satellite Name": "Starlink Shell 1 894",
        "Satellite Number": 894,
        "Semi-Major Axis(m)": 6931778.249405717,
        "Time(s)": 380
    },
    {
        "Altitude(m)": 570676.6191166453,
        "Argument of Periapsis(deg)": 0.013594560700938237,
        "Eccentricity": 0.0,
        "Inclination(deg)": 53.0,
        "Latitude(deg)": -50.15892717881083,
        "Longitude(deg)": -17.697420073018826,
        "Mean Anomaly(deg)": -106.46268306128816,
        "RAAN(deg)": 199.97976796697856,
        "Satellite Name": "Starlink Shell 1 894",
        "Satellite Number": 894,
        "Semi-Major Axis(m)": 6931778.249405717,
        "Time(s)": 390
    },
    {
        "Altitude(m)": 570762.2188128304,
        "Argument of Periapsis(deg)": 0.013943139180449475,
        "Eccentricity": 0.0,
        "Inclination(deg)": 53.0,
        "Latitude(deg)": -50.37483770414554,
        "Longitude(deg)": -16.82384266104159,
        "Mean Anomaly(deg)": -105.8358518577314,
        "RAAN(deg)": 199.97924919690107,
        "Satellite Name": "Starlink Shell 1 894",
        "Satellite Number": 894,
        "Semi-Major Axis(m)": 6931778.249405717,
        "Time(s)": 400
    },
    {
        "Altitude(m)": 570844.7693201615,
        "Argument of Periapsis(deg)": 0.014291717659960712,
        "Eccentricity": 0.0,
        "Inclination(deg)": 53.0,
        "Latitude(deg)": -50.58348093681412,
        "Longitude(deg)": -15.942080117298481,
        "Mean Anomaly(deg)": -105.2090206541747,
        "RAAN(deg)": 199.9787304268236,
        "Satellite Name": "Starlink Shell 1 894",
        "Satellite Number": 894,
        "Semi-Major Axis(m)": 6931778.249405717,
        "Time(s)": 410
    },
    {
        "Altitude(m)": 570924.2377799319,
        "Argument of Periapsis(deg)": 0.014640296139471948,
        "Eccentricity": 0.0,
        "Inclination(deg)": 53.0,
        "Latitude(deg)": -50.78473955077359,
        "Longitude(deg)": -15.052285659040257,
        "Mean Anomaly(deg)": -104.58218945061788,
        "RAAN(deg)": 199.97821165674617,
        "Satellite Name": "Starlink Shell 1 894",
        "Satellite Number": 894,
        "Semi-Major Axis(m)": 6931778.249405717,
        "Time(s)": 420
    },
    {
        "Altitude(m)": 571000.5925500912,
        "Argument of Periapsis(deg)": 0.014988874618983185,
        "Eccentricity": 0.0,
        "Inclination(deg)": 53.0,
        "Latitude(deg)": -50.97849801829648,
        "Longitude(deg)": -14.154628303135267,
        "Mean Anomaly(deg)": -103.95535824706118,
        "RAAN(deg)": 199.97769288666865,
        "Satellite Name": "Starlink Shell 1 894",
        "Satellite Number": 894,
        "Semi-Major Axis(m)": 6931778.249405717,
        "Time(s)": 430
    },
    {
        "Altitude(m)": 571073.8032189903,
        "Argument of Periapsis(deg)": 0.015337453098494424,
        "Eccentricity": 0.0,
        "Inclination(deg)": 53.0,
        "Latitude(deg)": -51.16464287591019,
        "Longitude(deg)": -13.249292556965427,
        "Mean Anomaly(deg)": -103.32852704350456,
        "RAAN(deg)": 199.97717411659121,
        "Satellite Name": "Starlink Shell 1 894",
        "Satellite Number": 894,
        "Semi-Major Axis(m)": 6931778.249405717,
        "Time(s)": 440
    },
    {
        "Altitude(m)": 571143.8406186047,
        "Argument of Periapsis(deg)": 0.01568603157800566,
        "Eccentricity": 0.0,
        "Inclination(deg)": 53.0,
        "Latitude(deg)": -51.34306299595388,
        "Longitude(deg)": -12.33647956130597,
        "Mean Anomaly(deg)": -102.70169583994782,
        "RAAN(deg)": 199.97665534651375,
        "Satellite Name": "Starlink Shell 1 894",
        "Satellite Number": 894,
        "Semi-Major Axis(m)": 6931778.249405717,
        "Time(s)": 450
    },
    {
        "Altitude(m)": 571210.6768371924,
        "Argument of Periapsis(deg)": 0.0160346100575169,
        "Eccentricity": 0.0,
        "Inclination(deg)": 53.0,
        "Latitude(deg)": -51.51364986259993,
        "Longitude(deg)": -11.416406654798044,
        "Mean Anomaly(deg)": -102.07486463639113,
        "RAAN(deg)": 199.97613657643626,
        "Satellite Name": "Starlink Shell 1 894",
        "Satellite Number": 894,
        "Semi-Major Axis(m)": 6931778.249405717,
        "Time(s)": 460
    },
    {
        "Altitude(m)": 571274.2852314034,
        "Argument of Periapsis(deg)": 0.016383188537028134,
        "Eccentricity": 0.0,
        "Inclination(deg)": 53.0,
        "Latitude(deg)": -51.67629785108342,
        "Longitude(deg)": -10.48930686854008,
        "Mean Anomaly(deg)": -101.44803343283438,
        "RAAN(deg)": 199.9756178063588,
        "Satellite Name": "Starlink Shell 1 894",
        "Satellite Number": 894,
        "Semi-Major Axis(m)": 6931778.249405717,
        "Time(s)": 470
    },
    {
        "Altitude(m)": 571334.6404378504,
        "Argument of Periapsis(deg)": 0.01673176701653937,
        "Eccentricity": 0.0,
        "Inclination(deg)": 53.0,
        "Latitude(deg)": -51.8309045087793,
        "Longitude(deg)": -9.55542985970705,
        "Mean Anomaly(deg)": -100.82120222927762,
        "RAAN(deg)": 199.9750990362813,
        "Satellite Name": "Starlink Shell 1 894",
        "Satellite Number": 894,
        "Semi-Major Axis(m)": 6931778.249405717,
        "Time(s)": 480
    },
    {
        "Altitude(m)": 571391.7183841093,
        "Argument of Periapsis(deg)": 0.017080345496050607,
        "Eccentricity": 0.0,
        "Inclination(deg)": 53.0,
        "Latitude(deg)": -51.977370836661066,
        "Longitude(deg)": -8.615041254929226,
        "Mean Anomaly(deg)": -100.19437102572094,
        "RAAN(deg)": 199.97458026620382,
        "Satellite Name": "Starlink Shell 1 894",
        "Satellite Number": 894,
        "Semi-Major Axis(m)": 6931778.249405717,
        "Time(s)": 490
    },
    {
        "Altitude(m)": 571445.4962991442,
        "Argument of Periapsis(deg)": 0.017428923975561842,
        "Eccentricity": 0.0,
        "Inclination(deg)": 53.0,
        "Latitude(deg)": -52.11560156959659,
        "Longitude(deg)": -7.668421913326911,
        "Mean Anomaly(deg)": -99.56753982216419,
        "RAAN(deg)": 199.97406149612635,
        "Satellite Name": "Starlink Shell 1 894",
        "Satellite Number": 894,
        "Semi-Major Axis(m)": 6931778.249405717,
        "Time(s)": 500
    },
    {
        "Altitude(m)": 571495.9527232057,
        "Argument of Periapsis(deg)": 0.01777750245507308,
        "Eccentricity": 0.0,
        "Inclination(deg)": 53.0,
        "Latitude(deg)": -52.245505453859046,
        "Longitude(deg)": -6.71586861970548,
        "Mean Anomaly(deg)": -98.94070861860754,
        "RAAN(deg)": 199.9735427260489,
        "Satellite Name": "Starlink Shell 1 894",
        "Satellite Number": 894,
        "Semi-Major Axis(m)": 6931778.249405717,
        "Time(s)": 510
    },
    {
        "Altitude(m)": 571543.0675171043,
        "Argument of Periapsis(deg)": 0.018126080934584315,
        "Eccentricity": 0.0,
        "Inclination(deg)": 53.0,
        "Latitude(deg)": -52.36699552017279,
        "Longitude(deg)": -5.757693180385967,
        "Mean Anomaly(deg)": -98.31387741505078,
        "RAAN(deg)": 199.9730239559714,
        "Satellite Name": "Starlink Shell 1 894",
        "Satellite Number": 894,
        "Semi-Major Axis(m)": 6931778.249405717,
        "Time(s)": 520
    },
    {
        "Altitude(m)": 571586.8218709424,
        "Argument of Periapsis(deg)": 0.018474659414095554,
        "Eccentricity": 0.0,
        "Inclination(deg)": 53.0,
        "Latitude(deg)": -52.47998935050005,
        "Longitude(deg)": -4.794221434142799,
        "Mean Anomaly(deg)": -97.687046211494,
        "RAAN(deg)": 199.97250518589394,
        "Satellite Name": "Starlink Shell 1 894",
        "Satellite Number": 894,
        "Semi-Major Axis(m)": 6931778.249405717,
        "Time(s)": 530
    },
    {
        "Altitude(m)": 571627.1983122707,
        "Argument of Periapsis(deg)": 0.018823237893606792,
        "Eccentricity": 0.0,
        "Inclination(deg)": 53.0,
        "Latitude(deg)": -52.584409336973806,
        "Longitude(deg)": -3.8257936896054465,
        "Mean Anomaly(deg)": -97.06021500793736,
        "RAAN(deg)": 199.97198641581647,
        "Satellite Name": "Starlink Shell 1 894",
        "Satellite Number": 894,
        "Semi-Major Axis(m)": 6931778.249405717,
        "Time(s)": 540
    },
    {
        "Altitude(m)": 571664.18071366,
        "Argument of Periapsis(deg)": 0.019171816373118027,
        "Eccentricity": 0.0,
        "Inclination(deg)": 53.0,
        "Latitude(deg)": -52.68018293096755,
        "Longitude(deg)": -2.852763566000203,
        "Mean Anomaly(deg)": -96.4333838043806,
        "RAAN(deg)": 199.97146764573898,
        "Satellite Name": "Starlink Shell 1 894",
        "Satellite Number": 894,
        "Semi-Major Axis(m)": 6931778.249405717,
        "Time(s)": 550
    },
    {
        "Altitude(m)": 571697.7542996611,
        "Argument of Periapsis(deg)": 0.019520394852629266,
        "Eccentricity": 0.0,
        "Inclination(deg)": 53.0,
        "Latitude(deg)": -52.767242880720524,
        "Longitude(deg)": -1.8754967502333366,
        "Mean Anomaly(deg)": -95.80655260082395,
        "RAAN(deg)": 199.97094887566155,
        "Satellite Name": "Starlink Shell 1 894",
        "Satellite Number": 894,
        "Semi-Major Axis(m)": 6931778.249405717,
        "Time(s)": 560
    }
]